{
    "links": {
        "self": "http://www.neowsapp.com/rest/v1/neo/3520204?api_key=iIulBulltgU6a56xZRHN4H3l9WmuAYTsLGpBGhQ2"
    },
    "id": "3520204",
    "neo_reference_id": "3520204",
    "name": "(2010 JM33)",
    "designation": "2010 JM33",
    "nasa_jpl_url": "http://ssd.jpl.nasa.gov/sbdb.cgi?sstr=3520204",
    "absolute_magnitude_h": 26.5,
    "estimated_diameter": {
        "kilometers": {
            "estimated_diameter_min": 0.0133215567,
            "estimated_diameter_max": 0.0297879063
        },
        "meters": {
            "estimated_diameter_min": 13.3215566698,
            "estimated_diameter_max": 29.7879062798
        },
        "miles": {
            "estimated_diameter_min": 0.008277629,
            "estimated_diameter_max": 0.0185093411
        },
        "feet": {
            "estimated_diameter_min": 43.7058959846,
            "estimated_diameter_max": 97.7293544391
        }
    },
    "is_potentially_hazardous_asteroid": false,
    "close_approach_data": [
        {
            "close_approach_date": "1959-04-13",
            "close_approach_date_full": "1959-Apr-13 17:07",
            "epoch_date_close_approach": -338280780000,
            "relative_velocity": {
                "kilometers_per_second": "22.6934308645",
                "kilometers_per_hour": "81696.3511122673",
                "miles_per_hour": "50762.9355008419"
            },
            "miss_distance": {
                "astronomical": "0.4796120336",
                "lunar": "186.5690810704",
                "kilometers": "71748938.652928432",
                "miles": "44582723.1505870816"
            },
            "orbiting_body": "Earth"
        },
        {
            "close_approach_date": "2010-05-20",
            "close_approach_date_full": "2010-May-20 03:52",
            "epoch_date_close_approach": 1274327520000,
            "relative_velocity": {
                "kilometers_per_second": "8.7913728348",
                "kilometers_per_hour": "31648.9422052967",
                "miles_per_hour": "19665.4218941745"
            },
            "miss_distance": {
                "astronomical": "0.030299136",
                "lunar": "11.786363904",
                "kilometers": "4532686.20844032",
                "miles": "2816480.607983616"
            },
            "orbiting_body": "Earth"
        }
    ],
    "orbital_data": {
        "orbit_id": "6",
        "orbit_determination_date": "2017-04-06 08:57:37",
        "first_observation_date": "2010-05-07",
        "last_observation_date": "2010-05-08",
        "data_arc_in_days": 1,
        "observations_used": 15,
        "orbit_uncertainty": "9",
        "minimum_orbit_intersection": ".030253",
        "jupiter_tisserand_invariant": "3.919",
        "epoch_osculation": "2455323.5",
        "eccentricity": ".4605244377704297",
        "semi_major_axis": "1.808125292850642",
        "inclination": "5.49388286595518",
        "ascending_node_longitude": "42.4639738580613",
        "orbital_period": "888.0577503971614",
        "perihelion_distance": ".9754394089421069",
        "perihelion_argument": "228.3752979961132",
        "aphelion_distance": "2.640811176759178",
        "perihelion_time": "2455363.351936641794",
        "mean_anomaly": "343.8448601066432",
        "mean_motion": ".4053790418911373",
        "equinox": "J2000",
        "orbit_class": {
            "orbit_class_type": "APO",
            "orbit_class_description": "Near-Earth asteroid orbits which cross the Earth’s orbit similar to that of 1862 Apollo",
            "orbit_class_range": "a (semi-major axis) > 1.0 AU; q (perihelion) < 1.017 AU"
        }
    },
    "is_sentry_object": false
}